[{"OBJECT_NAME":"BRO-12","OBJECT_ID":"2024-043L","EPOCH":"2026-03-09T22:37:32.158848","MEAN_MOTION":14.96535251,"ECCENTRICITY":0.00077366,"INCLINATION":97.831,"RA_OF_ASC_NODE":199.8995,"ARG_OF_PERICENTER":330.9773,"MEAN_ANOMALY":29.1017,"EPHEMERIS_TYPE":0,"CLASSIFICATION_TYPE":"U","NORAD_CAT_ID":59108,"ELEMENT_SET_NO":999,"REV_AT_EPOCH":10979,"BSTAR":0.00015413906,"MEAN_MOTION_DOT":1.694e-5,"MEAN_MOTION_DDOT":0},{"OBJECT_NAME":"STARLINK-35882","OBJECT_ID":"2025-298P","EPOCH":"2026-03-09T23:03:56.894688","MEAN_MOTION":14.98333879,"ECCENTRICITY":0.00031237,"INCLINATION":70.0009,"RA_OF_ASC_NODE":13.9447,"ARG_OF_PERICENTER":267.6345,"MEAN_ANOMALY":92.4456,"EPHEMERIS_TYPE":0,"CLASSIFICATION_TYPE":"U","NORAD_CAT_ID":67088,"ELEMENT_SET_NO":999,"REV_AT_EPOCH":1325,"BSTAR":0.00038624449,"MEAN_MOTION_DOT":4.519e-5,"MEAN_MOTION_DDOT":0}]
